[{"OBJECT_NAME":"ALTAIR (RS65S)","OBJECT_ID":"2024-199AW","EPOCH":"2026-03-09T21:31:54.569568","MEAN_MOTION":15.34998047,"ECCENTRICITY":0.00120363,"INCLINATION":97.3179,"RA_OF_ASC_NODE":298.9542,"ARG_OF_PERICENTER":307.5319,"MEAN_ANOMALY":52.483,"EPHEMERIS_TYPE":0,"CLASSIFICATION_TYPE":"U","NORAD_CAT_ID":61779,"ELEMENT_SET_NO":999,"REV_AT_EPOCH":12187,"BSTAR":0.00027541775,"MEAN_MOTION_DOT":9.293e-5,"MEAN_MOTION_DDOT":0},{"OBJECT_NAME":"STARLINK-35293","OBJECT_ID":"2025-232H","EPOCH":"2026-03-09T12:26:44.788416","MEAN_MOTION":15.30199704,"ECCENTRICITY":0.00012706,"INCLINATION":53.1577,"RA_OF_ASC_NODE":104.4001,"ARG_OF_PERICENTER":77.7877,"MEAN_ANOMALY":282.3266,"EPHEMERIS_TYPE":0,"CLASSIFICATION_TYPE":"U","NORAD_CAT_ID":66012,"ELEMENT_SET_NO":999,"REV_AT_EPOCH":2341,"BSTAR":0.0011275386,"MEAN_MOTION_DOT":0.00033184,"MEAN_MOTION_DDOT":0}]
